NORAD_CAT_ID,OBJECT_NAME,OBJECT_TYPE,EPOCH,MEAN_MOTION,ECCENTRICITY,INCLINATION,RA_OF_ASC_NODE,ARG_OF_PERICENTER,MEAN_ANOMALY,BSTAR,MEAN_MOTION_DOT,MEAN_MOTION_DDOT,TLE_LINE0,TLE_LINE1,TLE_LINE2,SEMIMAJOR_AXIS,PERIOD,APOGEE,PERIGEE,DECAYED
53977.0,STARLINK-5094,PAYLOAD,2023-11-29 01:33:43,15.0883429,0.0002034,53.2187,352.5387,120.1052,240.0142,0.0004103,6.247e-05,0.0,0 STARLINK-5094,1 53977U 22125P   23333.06508896  .00006247  00000-0  41030-3 0  9999,2 53977  53.2187 352.5387 0002034 120.1052 240.0142 15.08834290 63914,6917.898,95.438,541.17,538.356,0.0
53977.0,STARLINK-5094,PAYLOAD,2023-11-29 07:55:15,15.08845383,0.0001788,53.2194,351.3525,104.8581,255.2609,0.00047396,7.264e-05,0.0,0 STARLINK-5094,1 53977U 22125P   23333.33004262  .00007264  00000-0  47396-3 0  9998,2 53977  53.2194 351.3525 0001788 104.8581 255.2609 15.08845383 63959,6917.864,95.437,540.966,538.492,0.0
53977.0,STARLINK-5094,PAYLOAD,2023-11-30 07:46:03,15.08846719,0.0002294,53.2197,346.8934,118.4253,241.697,0.00016192,2.29e-05,0.0,0 STARLINK-5094,1 53977U 22125P   23334.32365017  .00002290  00000-0  16192-3 0  9990,2 53977  53.2197 346.8934 0002294 118.4253 241.6970 15.08846719 64107,6917.86,95.437,541.312,538.138,0.0
53977.0,STARLINK-5094,PAYLOAD,2023-12-01 07:36:50,15.08850162,0.000185,53.2201,342.434,100.1673,259.9528,-3.9107e-05,-9.11e-06,0.0,0 STARLINK-5094,1 53977U 22125P   23335.31724796 -.00000911  00000-0 -39107-4 0  9995,2 53977  53.2201 342.4340 0001850 100.1673 259.9528 15.08850162 64183,6917.849,95.437,540.994,538.435,0.0
53977.0,STARLINK-5094,PAYLOAD,2023-12-02 01:06:04,15.08851952,0.000208,53.2205,339.1609,110.044,250.0776,8.9786e-05,1.141e-05,0.0,0 STARLINK-5094,1 53977U 22125P   23336.04588106  .00001141  00000-0  89786-4 0  9991,2 53977  53.2205 339.1609 0002080 110.0440 250.0776 15.08851952 64361,6917.844,95.437,541.148,538.27,0.0
53977.0,STARLINK-5094,PAYLOAD,2023-12-02 07:27:35,15.08869325,0.0002137,53.2195,337.9729,109.749,250.3733,0.00044838,6.861e-05,0.0,0 STARLINK-5094,1 53977U 22125P   23336.31083042  .00006861  00000-0  44838-3 0  9992,2 53977  53.2195 337.9729 0002137 109.7490 250.3733 15.08869325 64405,6917.791,95.436,541.134,538.177,0.0
53977.0,STARLINK-5094,PAYLOAD,2023-12-03 04:07:38,15.08822869,0.0002173,53.2194,334.1049,123.0672,237.0529,-0.00028138,-4.762e-05,0.0,0 STARLINK-5094,1 53977U 22125P   23337.17197539 -.00004762  00000-0 -28138-3 0  9999,2 53977  53.2194 334.1049 0002173 123.0672 237.0529 15.08822869 64530,6917.933,95.439,541.301,538.294,0.0
53977.0,STARLINK-5094,PAYLOAD,2023-12-03 08:53:50,15.0881037,0.0001819,53.2196,333.212,90.7134,269.4067,-0.00022432,-3.853e-05,0.0,0 STARLINK-5094,1 53977U 22125P   23337.37072028 -.00003853  00000-0 -22432-3 0  9997,2 53977  53.2196 333.2120 0001819  90.7134 269.4067 15.08810370 64564,6917.971,95.439,541.094,538.578,0.0
53977.0,STARLINK-5094,PAYLOAD,2023-12-04 03:58:25,15.08851017,0.0001881,53.2201,329.647,77.7417,282.3786,-7.0466e-05,-1.41e-05,0.0,0 STARLINK-5094,1 53977U 22125P   23338.16557329 -.00001410  00000-0 -70466-4 0  9995,2 53977  53.2201 329.6470 0001881  77.7417 282.3786 15.08851017 64684,6917.847,95.437,541.013,538.41,0.0
53977.0,STARLINK-5094,PAYLOAD,2023-12-04 07:09:11,15.08859258,0.0002019,53.2194,329.049,90.4459,269.6765,2.9838e-06,-2.41e-06,0.0,0 STARLINK-5094,1 53977U 22125P   23338.29804486 -.00000241  00000-0  29838-5 0  9996,2 53977  53.2194 329.0490 0002019  90.4459 269.6765 15.08859258 64706,6917.822,95.436,541.083,538.29,0.0
53977.0,STARLINK-5094,PAYLOAD,2023-12-05 03:49:12,15.08833961,0.0002074,53.2185,325.1839,76.4361,283.6862,0.00035886,5.427e-05,0.0,0 STARLINK-5094,1 53977U 22125P   23339.15917415  .00005427  00000-0  35886-3 0  9997,2 53977  53.2185 325.1839 0002074  76.4361 283.6862 15.08833961 64838,6917.899,95.438,541.199,538.329,0.0
53977.0,STARLINK-5094,PAYLOAD,2023-12-05 08:35:21,15.08841904,0.0002092,53.2182,324.2908,79.7965,280.3263,0.00041399,6.307e-05,0.0,0 STARLINK-5094,1 53977U 22125P   23339.35788816  .00006307  00000-0  41399-3 0  9994,2 53977  53.2182 324.2908 0002092  79.7965 280.3263 15.08841904 64866,6917.875,95.437,541.187,538.292,0.0
53977.0,STARLINK-5094,PAYLOAD,2023-12-06 03:39:59,15.08850415,0.0002555,53.2186,320.723,85.3566,274.7718,-1.7091e-05,-5.61e-06,0.0,0 STARLINK-5094,1 53977U 22125P   23340.15277404 -.00000561  00000-0 -17091-4 0  9991,2 53977  53.2186 320.7230 0002555  85.3566 274.7718 15.08850415 64985,6917.849,95.437,541.481,537.946,0.0
53977.0,STARLINK-5094,PAYLOAD,2023-12-06 08:26:08,15.08854806,0.0002285,53.2189,319.831,90.6157,269.5096,1.6912e-05,-1.9e-07,0.0,0 STARLINK-5094,1 53977U 22125P   23340.35148773 -.00000019  00000-0  16912-4 0  9997,2 53977  53.2189 319.8310 0002285  90.6157 269.5096 15.08854806 64946,6917.835,95.437,541.281,538.119,0.0
53977.0,STARLINK-5094,PAYLOAD,2023-12-06 22:44:37,15.08816224,0.0002521,53.2215,317.1455,128.0107,232.1113,0.00019722,2.85e-05,0.0,0 STARLINK-5094,1 53977U 22125P   23340.94765916  .00002850  00000-0  19722-3 0  9991,2 53977  53.2215 317.1455 0002521 128.0107 232.1113 15.08816224 65030,6917.953,95.439,541.562,538.074,0.0
53977.0,STARLINK-5094,PAYLOAD,2023-12-07 08:16:55,15.08844979,0.00021,53.2181,315.3679,99.9062,260.2168,-0.00010155,-1.904e-05,0.0,0 STARLINK-5094,1 53977U 22125P   23341.34509243 -.00001904  00000-0 -10155-3 0  9997,2 53977  53.2181 315.3679 0002100  99.9062 260.2168 15.08844979 65163,6917.865,95.437,541.183,538.277,0.0
53977.0,STARLINK-5094,PAYLOAD,2023-12-08 04:56:56,15.0884381,0.0002075,53.2189,311.5021,102.6274,257.4951,-5.6898e-05,-1.194e-05,0.0,0 STARLINK-5094,1 53977U 22125P   23342.20621404 -.00001194  00000-0 -56898-4 0  9993,2 53977  53.2189 311.5021 0002075 102.6274 257.4951 15.08843810 65226,6917.869,95.437,541.169,538.298,0.0
53977.0,STARLINK-5094,PAYLOAD,2023-12-08 22:26:11,15.08835871,0.0002051,53.2185,308.2313,99.965,260.1574,5.5334e-05,5.92e-06,0.0,0 STARLINK-5094,1 53977U 22125P   23342.93485750  .00000592  00000-0  55334-4 0  9998,2 53977  53.2185 308.2313 0002051  99.9650 260.1574 15.08835871 65331,6917.893,95.438,541.177,538.339,0.0
53977.0,STARLINK-5094,PAYLOAD,2023-12-09 03:12:21,15.08816899,0.0002177,53.2186,307.3392,95.6775,264.4465,0.00038699,5.872e-05,0.0,0 STARLINK-5094,1 53977U 22125P   23343.13357981  .00005872  00000-0  38699-3 0  9995,2 53977  53.2186 307.3392 0002177  95.6775 264.4465 15.08816899 65435,6917.951,95.439,541.322,538.31,0.0
53977.0,STARLINK-5094,PAYLOAD,2023-12-09 04:47:44,15.08839908,0.0002061,53.2186,307.0424,95.7166,264.4062,8.7536e-05,1.105e-05,0.0,0 STARLINK-5094,1 53977U 22125P   23343.19981492  .00001105  00000-0  87536-4 0  9991,2 53977  53.2186 307.0424 0002061  95.7166 264.4062 15.08839908 65445,6917.881,95.438,541.171,538.32,0.0
53977.0,STARLINK-5094,PAYLOAD,2023-12-09 20:41:36,15.08822346,0.0002083,53.2189,304.0743,100.0862,260.0365,0.00025375,3.751e-05,0.0,0 STARLINK-5094,1 53977U 22125P   23343.86222415  .00003751  00000-0  25375-3 0  9999,2 53977  53.2189 304.0743 0002083 100.0862 260.0365 15.08822346 65543,6917.934,95.439,541.24,538.358,0.0
53977.0,STARLINK-5094,PAYLOAD,2023-12-09 22:16:59,15.08834083,0.0002181,53.2191,303.7738,99.7105,260.4134,1.9442e-05,2.1e-07,0.0,0 STARLINK-5094,1 53977U 22125P   23343.92846233  .00000021  00000-0  19442-4 0  9992,2 53977  53.2191 303.7738 0002181  99.7105 260.4134 15.08834083 65481,6917.898,95.438,541.272,538.255,0.0
53977.0,STARLINK-5094,PAYLOAD,2023-12-10 06:13:54,15.08835986,0.0002172,53.2191,302.2871,99.4522,260.6716,3.2068e-05,2.22e-06,0.0,0 STARLINK-5094,1 53977U 22125P   23344.25966200  .00000222  00000-0  32068-4 0  9998,2 53977  53.2191 302.2871 0002172  99.4522 260.6716 15.08835986 65608,6917.893,95.438,541.26,538.255,0.0
53977.0,STARLINK-5094,PAYLOAD,2023-12-11 04:29:18,15.0884399,0.0002178,53.2192,298.1238,99.4264,260.6975,-1.7848e-05,-5.72e-06,0.0,0 STARLINK-5094,1 53977U 22125P   23345.18701996 -.00000572  00000-0 -17848-4 0  9999,2 53977  53.2192 298.1238 0002178  99.4264 260.6975 15.08843990 65676,6917.868,95.437,541.24,538.226,0.0
53977.0,STARLINK-5094,PAYLOAD,2023-12-12 04:20:05,15.08842576,0.0001945,53.2185,293.6629,91.5836,268.5379,7.3581e-05,8.83e-06,0.0,0 STARLINK-5094,1 53977U 22125P   23346.18061946  .00000883  00000-0  73581-4 0  9993,2 53977  53.2185 293.6629 0001945  91.5836 268.5379 15.08842576 65822,6917.873,95.437,541.083,538.392,0.0
53977.0,STARLINK-5094,PAYLOAD,2023-12-13 02:35:29,15.08845093,0.000217,53.219,289.4992,77.6277,282.4958,7.0351e-05,8.32e-06,0.0,0 STARLINK-5094,1 53977U 22125P   23347.10797854  .00000832  00000-0  70351-4 0  9996,2 53977  53.2190 289.4992 0002170  77.6277 282.4958 15.08845093 66038,6917.865,95.437,541.231,538.229,0.0
53977.0,STARLINK-5094,PAYLOAD,2023-12-14 00:50:53,15.08841346,0.0002098,53.2182,285.3367,82.8919,277.2312,1.8099e-06,-2.59e-06,0.0,0 STARLINK-5094,1 53977U 22125P   23348.03534119 -.00000259  00000-0  18099-5 0  9998,2 53977  53.2182 285.3367 0002098  82.8919 277.2312 15.08841346 66178,6917.876,95.437,541.193,538.29,0.0
53977.0,STARLINK-5094,PAYLOAD,2023-12-15 02:17:03,15.08842848,0.0002162,53.2189,280.5766,97.1538,262.97,4.9943e-05,5.07e-06,0.0,0 STARLINK-5094,1 53977U 22125P   23349.09517595  .00000507  00000-0  49943-4 0  9990,2 53977  53.2189 280.5766 0002162  97.1538 262.9700 15.08842848 66331,6917.872,95.437,541.232,538.241,0.0
53977.0,STARLINK-5094,PAYLOAD,2023-12-15 22:57:04,15.08832386,0.0002386,53.2186,276.7087,119.6543,240.4687,-1.3853e-05,-5.09e-06,0.0,0 STARLINK-5094,1 53977U 22125P   23349.95630490 -.00000509  00000-0 -13853-4 0  9990,2 53977  53.2186 276.7087 0002386 119.6543 240.4687 15.08832386 66392,6917.904,95.438,541.419,538.118,0.0
53977.0,STARLINK-5094,PAYLOAD,2023-12-16 00:32:28,15.08832742,0.0001809,53.2183,276.415,95.3558,264.7641,-1.0234e-05,-4.51e-06,0.0,0 STARLINK-5094,1 53977U 22125P   23350.02254699 -.00000451  00000-0 -10234-4 0  9999,2 53977  53.2183 276.4150 0001809  95.3558 264.7641 15.08832742 66476,6917.903,95.438,541.019,538.516,0.0
